SPACEMOBILE-003         
1 61045U 24163A   26204.03425621  .00002495  00000+0  12678-3 0  9995
2 61045  52.9686 144.5962 0003596 220.2566 139.8162 15.20673687103224
SPACEMOBILE-005         
1 61046U 24163B   26204.21492986  .00001507  00000+0  82557-4 0  9991
2 61046  52.9740 143.7232 0008301 219.1098 140.9297 15.20624425103243
SPACEMOBILE-001         
1 61047U 24163C   26204.21320313  .00000420  00000+0  33609-4 0  9993
2 61047  52.9699 143.4348 0006745 217.4420 142.6105 15.20678489103248
SPACEMOBILE-002         
1 61048U 24163D   26204.06618635  .00022234  00000+0  10167-2 0  9993
2 61048  52.9773 144.1623 0004783 212.6215 147.4484 15.20478362103224
SPACEMOBILE-004         
1 61049U 24163E   26204.11393918  .00021285  00000+0  96977-3 0  9993
2 61049  52.9731 143.7101 0005257 250.7696 109.2730 15.20626990103231
SPACEMOBILE-006         
1 67232U 25309A   26204.17388663  .00002949  00000+0  15556-3 0  9993
2 67232  52.9956 166.7813 0009463 242.7348 117.2682 15.18691485 32068
SPACEMOBILE-008         
1 69589U 26139A   26204.14673180  .00000626  00000+0  52210-4 0  9999
2 69589  52.9952  99.3063 0005391  74.0305 286.1279 15.12815414  5426
SPACEMOBILE-009         
1 69590U 26139B   26204.08317279  .00001287  00000+0  89615-4 0  9991
2 69590  52.9945  99.6160 0005604  71.6496 288.5104 15.12715669  5415
SPACEMOBILE-010         
1 69591U 26139C   26204.08713962  .00001314  00000+0  91551-4 0  9994
2 69591  52.9951  99.6437 0005617  64.2078 295.9492 15.12552732  5421
